STARLINK-3697           
1 51962U 22025G   26068.20356615 -.00000302  00000+0  18600-5 0  9999
2 51962  53.1570  26.3329 0001382  87.4855 272.6303 15.29354232220948
EOSSAT-1                
1 55053U 23001AW  26068.73619225  .00007695  00000+0  24844-3 0  9992
2 55053  97.3357 130.2294 0011263 110.3168 249.9285 15.32339828176689
